start=new Date('2021-12-12T00:00:00.000Z').valueOf();
sats=[{"SEMIMAJOR_AXIS":"6820.096","DECAY_DATE":null,"APOAPSIS":"442.809","MEAN_ANOMALY":"239.1142","OBJECT_ID":"2020-025X","CENTER_NAME":"EARTH","MEAN_MOTION":"15.41406047","ELEMENT_SET_NO":"999","RA_OF_ASC_NODE":"184.2001","CLASSIFICATION_TYPE":"U","SITE":"AFETR","LAUNCH_DATE":"2020-04-22","COUNTRY_CODE":"US","OBJECT_TYPE":"PAYLOAD","NORAD_CAT_ID":"45552","GP_ID":"191519647","EPOCH":"2021-12-11T22:25:56.181792","FILE":"3237650","EPHEMERIS_TYPE":"0","TIME_SYSTEM":"UTC","MEAN_ELEMENT_THEORY":"SGP4","BSTAR":"0.00009839900000","TLE_LINE2":"2 45552  53.0555 184.2001 0001244 120.9984 239.1142 15.41406047 92146","ECCENTRICITY":"0.00012440","REV_AT_EPOCH":"9214","MEAN_MOTION_DOT":"0.00003770","INCLINATION":"53.0555","ARG_OF_PERICENTER":"120.9984","RCS_SIZE":"LARGE","PERIAPSIS":"441.112","OBJECT_NAME":"STARLINK-1322","TLE_LINE1":"1 45552U 20025X   21345.93467803  .00003770  00000-0  98399-4 0  9994","REF_FRAME":"TEME","PERIOD":"93.421","MEAN_MOTION_DDOT":"0.0000000000000"},{"FILE":"3237650","EPHEMERIS_TYPE":"0","EPOCH":"2021-12-11T21:53:14.933760","GP_ID":"191520891","REV_AT_EPOCH":"9064","MEAN_MOTION_DOT":"-0.00000688","ECCENTRICITY":"0.00020850","TLE_LINE2":"2 45553  53.0542 199.3627 0002085  78.4525 281.6698 15.06391529 90646","MEAN_ELEMENT_THEORY":"SGP4","BSTAR":"-0.00002726000000","TIME_SYSTEM":"UTC","OBJECT_NAME":"STARLINK-1323","PERIAPSIS":"545.796","RCS_SIZE":"LARGE","ARG_OF_PERICENTER":"78.4525","INCLINATION":"53.0542","MEAN_MOTION_DDOT":"0.0000000000000","PERIOD":"95.593","REF_FRAME":"TEME","TLE_LINE1":"1 45553U 20025Y   21345.91197840 -.00000688  00000-0 -27260-4 0  9990","MEAN_ANOMALY":"281.6698","APOAPSIS":"548.683","DECAY_DATE":null,"SEMIMAJOR_AXIS":"6925.375","ELEMENT_SET_NO":"999","MEAN_MOTION":"15.06391529","OBJECT_ID":"2020-025Y","CENTER_NAME":"EARTH","LAUNCH_DATE":"2020-04-22","SITE":"AFETR","CLASSIFICATION_TYPE":"U","RA_OF_ASC_NODE":"199.3627","NORAD_CAT_ID":"45553","OBJECT_TYPE":"PAYLOAD","COUNTRY_CODE":"US"},{"PERIOD":"95.592","MEAN_MOTION_DDOT":"0.0000000000000","REF_FRAME":"TEME","TLE_LINE1":"1 45554U 20025Z   21345.90459100  .00000468  00000-0  50333-4 0  9991","OBJECT_NAME":"STARLINK-1325","PERIAPSIS":"545.614","ARG_OF_PERICENTER":"81.8181","RCS_SIZE":"LARGE","INCLINATION":"53.0524","REV_AT_EPOCH":"9193","MEAN_MOTION_DOT":"0.00000468","TLE_LINE2":"2 45554  53.0524 199.3919 0002278  81.8181 278.3066 15.06407033 91934","ECCENTRICITY":"0.00022780","TIME_SYSTEM":"UTC","BSTAR":"0.00005033300000","MEAN_ELEMENT_THEORY":"SGP4","EPOCH":"2021-12-11T21:42:36.662400","EPHEMERIS_TYPE":"0","FILE":"3237650","GP_ID":"191520649","NORAD_CAT_ID":"45554","COUNTRY_CODE":"US","OBJECT_TYPE":"PAYLOAD","SITE":"AFETR","LAUNCH_DATE":"2020-04-22","RA_OF_ASC_NODE":"199.3919","CLASSIFICATION_TYPE":"U","ELEMENT_SET_NO":"999","MEAN_MOTION":"15.06407033","CENTER_NAME":"EARTH","OBJECT_ID":"2020-025Z","MEAN_ANOMALY":"278.3066","DECAY_DATE":null,"APOAPSIS":"548.770","SEMIMAJOR_AXIS":"6925.327"},{"GP_ID":"191519890","FILE":"3237650","EPHEMERIS_TYPE":"0","EPOCH":"2021-12-11T20:49:31.964448","ECCENTRICITY":"0.00026700","TLE_LINE2":"2 45555  53.0520 199.5570 0002670  78.8198 281.3091 15.06392433 91924","BSTAR":"-0.00005834500000","MEAN_ELEMENT_THEORY":"SGP4","TIME_SYSTEM":"UTC","REV_AT_EPOCH":"9192","MEAN_MOTION_DOT":"-0.00001151","RCS_SIZE":"LARGE","ARG_OF_PERICENTER":"78.8198","INCLINATION":"53.0520","OBJECT_NAME":"STARLINK-1327","PERIAPSIS":"545.388","TLE_LINE1":"1 45555U 20025AA  21345.86773107 -.00001151  00000-0 -58345-4 0  9996","MEAN_MOTION_DDOT":"0.0000000000000","PERIOD":"95.593","REF_FRAME":"TEME","APOAPSIS":"549.086","DECAY_DATE":null,"SEMIMAJOR_AXIS":"6925.372","MEAN_ANOMALY":"281.3091","MEAN_MOTION":"15.06392433","ELEMENT_SET_NO":"999","CENTER_NAME":"EARTH","OBJECT_ID":"2020-025AA","CLASSIFICATION_TYPE":"U","RA_OF_ASC_NODE":"199.5570","LAUNCH_DATE":"2020-04-22","SITE":"AFETR","OBJECT_TYPE":"PAYLOAD","COUNTRY_CODE":"US","NORAD_CAT_ID":"45555"},{"REF_FRAME":"TEME","PERIOD":"95.592","MEAN_MOTION_DDOT":"0.0000000000000","TLE_LINE1":"1 45556U 20025AB  21345.90828386  .00000508  00000-0  52993-4 0  9998","PERIAPSIS":"545.558","OBJECT_NAME":"STARLINK-1334","INCLINATION":"53.0538","ARG_OF_PERICENTER":"77.2756","RCS_SIZE":"LARGE","MEAN_MOTION_DOT":"0.00000508","REV_AT_EPOCH":"9193","TIME_SYSTEM":"UTC","BSTAR":"0.00005299300000","MEAN_ELEMENT_THEORY":"SGP4","TLE_LINE2":"2 45556  53.0538 199.3788 0002382  77.2756 282.8499 15.06401884 91936","ECCENTRICITY":"0.00023820","EPOCH":"2021-12-11T21:47:55.725504","FILE":"3237650","EPHEMERIS_TYPE":"0","GP_ID":"191520140","NORAD_CAT_ID":"45556","COUNTRY_CODE":"US","OBJECT_TYPE":"PAYLOAD","SITE":"AFETR","LAUNCH_DATE":"2020-04-22","RA_OF_ASC_NODE":"199.3788","CLASSIFICATION_TYPE":"U","OBJECT_ID":"2020-025AB","CENTER_NAME":"EARTH","ELEMENT_SET_NO":"999","MEAN_MOTION":"15.06401884","MEAN_ANOMALY":"282.8499","SEMIMAJOR_AXIS":"6925.343","DECAY_DATE":null,"APOAPSIS":"548.857"},{"TLE_LINE1":"1 45557U 20025AC  21345.71661687  .00000456  00000-0  49522-4 0  9993","MEAN_MOTION_DDOT":"0.0000000000000","PERIOD":"95.593","REF_FRAME":"TEME","RCS_SIZE":"LARGE","ARG_OF_PERICENTER":"77.8691","INCLINATION":"53.0524","OBJECT_NAME":"STARLINK-1336","PERIAPSIS":"545.656","ECCENTRICITY":"0.00022760","TLE_LINE2":"2 45557  53.0524 200.2331 0002276  77.8691 282.2552 15.06393907 91901","BSTAR":"0.00004952200000","MEAN_ELEMENT_THEORY":"SGP4","TIME_SYSTEM":"UTC","MEAN_MOTION_DOT":"0.00000456","REV_AT_EPOCH":"9190","GP_ID":"191520399","EPHEMERIS_TYPE":"0","FILE":"3237650","EPOCH":"2021-12-11T17:11:55.697568","OBJECT_TYPE":"PAYLOAD","COUNTRY_CODE":"US","NORAD_CAT_ID":"45557","CLASSIFICATION_TYPE":"U","RA_OF_ASC_NODE":"200.2331","LAUNCH_DATE":"2020-04-22","SITE":"AFETR","MEAN_MOTION":"15.06393907","ELEMENT_SET_NO":"999","OBJECT_ID":"2020-025AC","CENTER_NAME":"EARTH","APOAPSIS":"548.808","DECAY_DATE":null,"SEMIMAJOR_AXIS":"6925.367","MEAN_ANOMALY":"282.2552"},{"EPOCH":"2021-12-11T21:10:45.044256","FILE":"3237650","EPHEMERIS_TYPE":"0","GP_ID":"191521142","REV_AT_EPOCH":"9192","MEAN_MOTION_DOT":"0.00000506","TIME_SYSTEM":"UTC","MEAN_ELEMENT_THEORY":"SGP4","BSTAR":"0.00005289600000","TLE_LINE2":"2 45558  53.0537 199.4916 0002475  78.8901 281.2366 15.06404756 91929","ECCENTRICITY":"0.00024750","PERIAPSIS":"545.485","OBJECT_NAME":"STARLINK-1342","INCLINATION":"53.0537","ARG_OF_PERICENTER":"78.8901","RCS_SIZE":"LARGE","REF_FRAME":"TEME","PERIOD":"95.592","MEAN_MOTION_DDOT":"0.0000000000000","TLE_LINE1":"1 45558U 20025AD  21345.88246579  .00000506  00000-0  52896-4 0  9995","MEAN_ANOMALY":"281.2366","SEMIMAJOR_AXIS":"6925.334","DECAY_DATE":null,"APOAPSIS":"548.913","OBJECT_ID":"2020-025AD","CENTER_NAME":"EARTH","MEAN_MOTION":"15.06404756","ELEMENT_SET_NO":"999","SITE":"AFETR","LAUNCH_DATE":"2020-04-22","RA_OF_ASC_NODE":"199.4916","CLASSIFICATION_TYPE":"U","NORAD_CAT_ID":"45558","COUNTRY_CODE":"US","OBJECT_TYPE":"PAYLOAD"},{"SITE":"AFETR","LAUNCH_DATE":"2020-04-22","RA_OF_ASC_NODE":"199.6151","CLASSIFICATION_TYPE":"U","NORAD_CAT_ID":"45559","COUNTRY_CODE":"US","OBJECT_TYPE":"PAYLOAD","MEAN_ANOMALY":"282.8554","DECAY_DATE":null,"APOAPSIS":"548.799","SEMIMAJOR_AXIS":"6925.371","MEAN_MOTION":"15.06392600","ELEMENT_SET_NO":"999","OBJECT_ID":"2020-025AE","CENTER_NAME":"EARTH","OBJECT_NAME":"STARLINK-1344","PERIAPSIS":"545.674","ARG_OF_PERICENTER":"77.2687","RCS_SIZE":"LARGE","INCLINATION":"53.0530","PERIOD":"95.593","MEAN_MOTION_DDOT":"0.0000000000000","REF_FRAME":"TEME","TLE_LINE1":"1 45559U 20025AE  21345.85300005 -.00001202  00000-0 -61828-4 0  9999","EPOCH":"2021-12-11T20:28:19.204320","EPHEMERIS_TYPE":"0","FILE":"3237650","GP_ID":"191519398","REV_AT_EPOCH":"9192","MEAN_MOTION_DOT":"-0.00001202","TLE_LINE2":"2 45559  53.0530 199.6151 0002256  77.2687 282.8554 15.06392600 91927","ECCENTRICITY":"0.00022560","TIME_SYSTEM":"UTC","MEAN_ELEMENT_THEORY":"SGP4","BSTAR":"-0.00006182800000"},{"INCLINATION":"53.0537","ARG_OF_PERICENTER":"79.3442","RCS_SIZE":"LARGE","PERIAPSIS":"545.635","OBJECT_NAME":"STARLINK-1346","TLE_LINE1":"1 45560U 20025AF  21345.83917616 -.00001035  00000-0 -50562-4 0  9998","REF_FRAME":"TEME","PERIOD":"95.593","MEAN_MOTION_DDOT":"0.0000000000000","GP_ID":"191519648","EPOCH":"2021-12-11T20:08:24.820224","FILE":"3237650","EPHEMERIS_TYPE":"0","TIME_SYSTEM":"UTC","BSTAR":"-0.00005056200000","MEAN_ELEMENT_THEORY":"SGP4","TLE_LINE2":"2 45560  53.0537 189.6857 0002324  79.3442 280.7809 15.06389812 92063","ECCENTRICITY":"0.00023240","MEAN_MOTION_DOT":"-0.00001035","REV_AT_EPOCH":"9206","RA_OF_ASC_NODE":"189.6857","CLASSIFICATION_TYPE":"U","SITE":"AFETR","LAUNCH_DATE":"2020-04-22","COUNTRY_CODE":"US","OBJECT_TYPE":"PAYLOAD","NORAD_CAT_ID":"45560","SEMIMAJOR_AXIS":"6925.380","DECAY_DATE":null,"APOAPSIS":"548.854","MEAN_ANOMALY":"280.7809","OBJECT_ID":"2020-025AF","CENTER_NAME":"EARTH","ELEMENT_SET_NO":"999","MEAN_MOTION":"15.06389812"},{"CLASSIFICATION_TYPE":"U","RA_OF_ASC_NODE":"114.0271","LAUNCH_DATE":"2020-04-22","SITE":"AFETR","OBJECT_TYPE":"PAYLOAD","COUNTRY_CODE":"US","NORAD_CAT_ID":"45561","SEMIMAJOR_AXIS":"6920.710","APOAPSIS":"544.035","DECAY_DATE":null,"MEAN_ANOMALY":"265.1149","OBJECT_ID":"2020-025AG","CENTER_NAME":"EARTH","ELEMENT_SET_NO":"999","MEAN_MOTION":"15.07914622","INCLINATION":"53.0584","RCS_SIZE":"LARGE","ARG_OF_PERICENTER":"95.0082","PERIAPSIS":"541.116","OBJECT_NAME":"STARLINK-1348","TLE_LINE1":"1 45561U 20025AG  21345.82953064  .00002920  00000-0  20646-3 0  9996","REF_FRAME":"TEME","MEAN_MOTION_DDOT":"0.0000000000000","PERIOD":"95.496","GP_ID":"191520892","FILE":"3237650","EPHEMERIS_TYPE":"0","EPOCH":"2021-12-11T19:54:31.447296","BSTAR":"0.00020646000000","MEAN_ELEMENT_THEORY":"SGP4","TIME_SYSTEM":"UTC","ECCENTRICITY":"0.00021090","TLE_LINE2":"2 45561  53.0584 114.0271 0002109  95.0082 265.1149 15.07914622 93120","REV_AT_EPOCH":"9312","MEAN_MOTION_DOT":"0.00002920"}];
